STARLINK-32314          
1 61709U 24196C   26170.80619232  .00000081  00000+0  14874-4 0  9998
2 61709  53.1612 346.8405 0002185 125.9141 234.2063 15.30208355 92791
STARLINK-32404          
1 61710U 24196D   26170.91668981  .00061455  00000+0  18165-2 0  9994
2 61710  53.1603 346.5755 0000881  78.0163  46.4631 15.34376113  5768
STARLINK-32312          
1 61711U 24196E   26170.91668981  .00052742  00000+0  15630-2 0  9998
2 61711  53.1596 346.1572 0001185  79.7183 254.1739 15.34363600  5811
STARLINK-32343          
1 61712U 24196F   26170.89683738  .00000541  00000+0  30397-4 0  9992
2 61712  53.1616 346.6904 0001053  80.1529 279.9591 15.30198458 92802
STARLINK-32467          
1 61713U 24196G   26170.86892146  .00000328  00000+0  20836-4 0  9995
2 61713  53.1614 346.5220 0001026 106.4489 253.6626 15.34389831 92807
STARLINK-32440          
1 61714U 24196H   26170.92353933  .00000345  00000+0  21360-4 0  9991
2 61714  53.1629 346.1445 0001154 106.7035 253.4094 15.34392875 92811
STARLINK-32459          
1 61715U 24196J   26170.74721827  .00000581  00000+0  31751-4 0  9990
2 61715  53.1621 347.1814 0001423  88.8871 271.2292 15.30192313 92787
STARLINK-32465          
1 61716U 24196K   26170.75127140 -.00000073  00000+0  89490-5 0  9991
2 61716  53.1612 347.2099 0000625  37.8861 322.2185 15.34394346 92782
STARLINK-32457          
1 61717U 24196L   26170.74405541  .00000441  00000+0  27039-4 0  9993
2 61717  53.1627 347.1613 0001329  98.8729 261.2422 15.30189217 92783
STARLINK-32591          
1 61718U 24196M   26170.68760911  .00000577  00000+0  28215-4 0  9999
2 61718  53.1635 333.2799 0001419  86.1630 273.9534 15.34387785 92974
STARLINK-32344          
1 61719U 24196N   26170.91668981  .00041778  00000+0  12426-2 0  9993
2 61719  53.1603 346.6403 0000890  52.9019  36.8069 15.34352571  5826
STARLINK-32322          
1 61720U 24196P   26170.87523222  .00001735  00000+0  62474-4 0  9997
2 61720  53.1630 346.5565 0001598  93.8708 266.2477 15.34396468 92800
STARLINK-32469          
1 61721U 24196Q   26170.86834901  .00000672  00000+0  34818-4 0  9996
2 61721  53.1631 346.5086 0001471 113.3706 246.7450 15.30191229 92804
STARLINK-32438          
1 61722U 24196R   26170.75758571 -.00000971  00000+0 -17614-4 0  9992
2 61722  53.1625 347.2467 0001148 107.6374 252.4754 15.34393896 92783
STARLINK-32540          
1 61723U 24196S   26170.79669797 -.00000174  00000+0  59949-5 0  9990
2 61723  53.1619 310.7226 0001110  93.5669 266.5461 15.34395536 93295
STARLINK-32528          
1 61724U 24196T   26170.86681853  .00002148  00000+0  74714-4 0  9994
2 61724  53.1635 346.5048 0001280  86.5167 273.5982 15.34386908 91608
STARLINK-32573          
1 61725U 24196U   26170.90105662  .00001284  00000+0  55447-4 0  9991
2 61725  53.1619 346.7158 0000947  88.8786 271.2323 15.30204013 92805
STARLINK-32478          
1 61726U 24196V   26170.76304324  .00001872  00000+0  75304-4 0  9999
2 61726  53.1626 347.2741 0000966  85.7842 274.3270 15.30199739 92788
STARLINK-32511          
1 61727U 24196W   26170.91668981  .00055544  00000+0  16449-2 0  9997
2 61727  53.1613 346.3396 0001261  76.1546 164.7085 15.34362722  5862
STARLINK-32475          
1 61728U 24196X   26170.75038368  .00000873  00000+0  41599-4 0  9991
2 61728  53.1626 347.1938 0001368 103.9299 256.1854 15.30191232 92789
STARLINK-32442          
1 61729U 24196Y   26170.91668981  .00057914  00000+0  17143-2 0  9994
2 61729  53.1610 346.4084 0001224  76.9791 129.0025 15.34356976  5867
COSMOS 2579             
1 61730U 24197A   26170.96038045  .00002847  00000+0  11741-3 0  9998
2 61730  97.5584  94.9679 0002537  59.5259 300.6229 15.24904723 90898
DSN-3 (KIRAMEKI-3)      
1 61733U 24198A   26170.85022839 -.00000256  00000+0  00000+0 0  9999
2 61733   0.0284 280.3547 0000578 190.5833 247.2706  1.00270954  5948
IONOSFERA-M 1           
1 61735U 24199A   26170.93650266  .00000031  00000+0  33373-4 0  9996
2 61735  98.7170  44.0797 0002025 106.7328 253.4072 14.22754797128094
IONOSFERA-M 2           
1 61736U 24199B   26170.90046531  .00000023  00000+0  29713-4 0  9992
2 61736  98.7169  43.9546 0000934  37.8794 322.2449 14.22758026131211
SITRO-AIS 16            
1 61737U 24199C   26170.89647283  .00002450  00000+0  21412-3 0  9995
2 61737  97.3229  10.0553 0008105  65.0201 295.1863 14.97603366132229
SITRO-AIS 15            
1 61738U 24199D   26170.88064971  .00001902  00000+0  16722-3 0  9991
2 61738  97.3225  10.0795 0007467  63.3179 296.8808 14.97618364132220
SITRO-AIS 21            
1 61739U 24199E   26170.88469377  .00001918  00000+0  17929-3 0  9998
2 61739  97.3249   8.4964 0013842  58.3549 301.9021 14.95143704132151
SITRO-AIS 22            
1 61740U 24199F   26170.91271400  .00001985  00000+0  18175-3 0  9990
2 61740  97.3249   8.7576 0014041  57.5468 302.7110 14.95920134132325
SITRO-AIS 24            
1 61741U 24199G   26170.89742639  .00002365  00000+0  21430-3 0  9996
2 61741  97.3250   8.7871 0013828  59.0591 301.1988 14.96165121132292
