OBJECT_NAME,OBJECT_ID,EPOCH,MEAN_MOTION,ECCENTRICITY,INCLINATION,RA_OF_ASC_NODE,ARG_OF_PERICENTER,MEAN_ANOMALY,EPHEMERIS_TYPE,CLASSIFICATION_TYPE,NORAD_CAT_ID,ELEMENT_SET_NO,REV_AT_EPOCH,BSTAR,MEAN_MOTION_DOT,MEAN_MOTION_DDOT
STARLINK-32314,2024-196C,2026-06-19T19:20:55.016448,15.30208355,.00021859,53.1612,346.8405,125.9141,234.2063,0,U,61709,999,9279,.14874195E-4,.81E-6,0
STARLINK-32404,2024-196D,2026-06-19T22:00:01.999584,15.34376113,.00008811,53.1603,346.5755,78.0163,46.4631,0,U,61710,999,576,.1816515E-2,.61455E-3,0
STARLINK-32312,2024-196E,2026-06-19T22:00:01.999584,15.34363600,.00011858,53.1596,346.1572,79.7183,254.1739,0,U,61711,999,581,.15629843E-2,.52742E-3,0
STARLINK-32343,2024-196F,2026-06-19T21:31:26.749632,15.30198458,.00010537,53.1616,346.6904,80.1529,279.9591,0,U,61712,999,9280,.30396999E-4,.541E-5,0
STARLINK-32467,2024-196G,2026-06-19T20:51:14.814144,15.34389831,.00010262,53.1614,346.5220,106.4489,253.6626,0,U,61713,999,9280,.20835792E-4,.328E-5,0
STARLINK-32440,2024-196H,2026-06-19T22:09:53.798112,15.34392875,.00011549,53.1629,346.1445,106.7035,253.4094,0,U,61714,999,9281,.21359615E-4,.345E-5,0
STARLINK-32459,2024-196J,2026-06-19T17:55:59.658528,15.30192313,.00014233,53.1621,347.1814,88.8871,271.2292,0,U,61715,999,9278,.31751341E-4,.581E-5,0
STARLINK-32465,2024-196K,2026-06-19T18:01:49.848960,15.34394346,.00006253,53.1612,347.2099,37.8861,322.2185,0,U,61716,999,9278,.8948993E-5,-.73E-6,0
STARLINK-32457,2024-196L,2026-06-19T17:51:26.387424,15.30189217,.00013292,53.1627,347.1613,98.8729,261.2422,0,U,61717,999,9278,.27038726E-4,.441E-5,0
STARLINK-32591,2024-196M,2026-06-19T16:30:09.427104,15.34387785,.0001419,53.1635,333.2799,86.1630,273.9534,0,U,61718,999,9297,.28214759E-4,.577E-5,0
STARLINK-32344,2024-196N,2026-06-19T22:00:01.999584,15.34352571,.00008908,53.1603,346.6403,52.9019,36.8069,0,U,61719,999,582,.12426091E-2,.41778E-3,0
STARLINK-32322,2024-196P,2026-06-19T21:00:20.063808,15.34396468,.00015987,53.1630,346.5565,93.8708,266.2477,0,U,61720,999,9280,.62473879E-4,.1735E-4,0
STARLINK-32469,2024-196Q,2026-06-19T20:50:25.354464,15.30191229,.00014713,53.1631,346.5086,113.3706,246.7450,0,U,61721,999,9280,.3481767E-4,.672E-5,0
STARLINK-32438,2024-196R,2026-06-19T18:10:55.405344,15.34393896,.00011488,53.1625,347.2467,107.6374,252.4754,0,U,61722,999,9278,-.17614137E-4,-.971E-5,0
STARLINK-32540,2024-196S,2026-06-19T19:07:14.704608,15.34395536,.00011109,53.1619,310.7226,93.5669,266.5461,0,U,61723,999,9329,.5994876E-5,-.174E-5,0
STARLINK-32528,2024-196T,2026-06-19T20:48:13.120992,15.34386908,.00012807,53.1635,346.5048,86.5167,273.5982,0,U,61724,999,9160,.74714333E-4,.2148E-4,0
STARLINK-32573,2024-196U,2026-06-19T21:37:31.291968,15.30204013,.00009479,53.1619,346.7158,88.8786,271.2323,0,U,61725,999,9280,.55447324E-4,.1284E-4,0
STARLINK-32478,2024-196V,2026-06-19T18:18:46.935936,15.30199739,.00009664,53.1626,347.2741,85.7842,274.3270,0,U,61726,999,9278,.75304492E-4,.1872E-4,0
STARLINK-32511,2024-196W,2026-06-19T22:00:01.999584,15.34362722,.00012615,53.1613,346.3396,76.1546,164.7085,0,U,61727,999,586,.16448666E-2,.55544E-3,0
STARLINK-32475,2024-196X,2026-06-19T18:00:33.149952,15.30191232,.00013685,53.1626,347.1938,103.9299,256.1854,0,U,61728,999,9278,.41598701E-4,.873E-5,0
STARLINK-32442,2024-196Y,2026-06-19T22:00:01.999584,15.34356976,.0001224,53.1610,346.4084,76.9791,129.0025,0,U,61729,999,586,.17143493E-2,.57914E-3,0
COSMOS 2579,2024-197A,2026-06-19T23:02:56.870880,15.24904723,.00025378,97.5584,94.9679,59.5259,300.6229,0,U,61730,999,9089,.11740614E-3,.2847E-4,0
DSN-3 (KIRAMEKI-3),2024-198A,2026-06-19T20:24:19.732896,1.00270954,.00005786,0.0284,280.3547,190.5833,247.2706,0,U,61733,999,594,0,-.256E-5,0
IONOSFERA-M 1,2024-199A,2026-06-19T22:28:33.829824,14.22754797,.00020253,98.7170,44.0797,106.7328,253.4072,0,U,61735,999,12809,.33373189E-4,.31E-6,0
IONOSFERA-M 2,2024-199B,2026-06-19T21:36:40.202784,14.22758026,.00009349,98.7169,43.9546,37.8794,322.2449,0,U,61736,999,13121,.29712749E-4,.23E-6,0
SITRO-AIS 16,2024-199C,2026-06-19T21:30:55.252512,14.97603366,.00081056,97.3229,10.0553,65.0201,295.1863,0,U,61737,999,13222,.21411647E-3,.245E-4,0
SITRO-AIS 15,2024-199D,2026-06-19T21:08:08.134944,14.97618364,.00074674,97.3225,10.0795,63.3179,296.8808,0,U,61738,999,13222,.16722357E-3,.1902E-4,0
SITRO-AIS 21,2024-199E,2026-06-19T21:13:57.541728,14.95143704,.0013842,97.3249,8.4964,58.3549,301.9021,0,U,61739,999,13215,.17929214E-3,.1918E-4,0
SITRO-AIS 22,2024-199F,2026-06-19T21:54:18.489600,14.95920134,.00140415,97.3249,8.7576,57.5468,302.7110,0,U,61740,999,13232,.18175447E-3,.1985E-4,0
SITRO-AIS 24,2024-199G,2026-06-19T21:32:17.640096,14.96165121,.00138283,97.3250,8.7871,59.0591,301.1988,0,U,61741,999,13229,.21429884E-3,.2365E-4,0
